24873,IRIDIUM 921,1997,93.72,-1.0,-,86.38,Inactive,0,LEO,USA,USA,Unknown,Unknown,Unknown,1 24873U 97034E   24129.50301137  .00030263  00000+0  84779-3 0  9996,2 24873  86.3785 307.7329 0004821  63.7386 296.4360 15.36468495469080,15.36468495,0.0004821,LEO
24903,IRIDIUM 26,1997,100.26,-1.0,-,86.39,Inactive,0,LEO,USA,USA,Unknown,Unknown,Unknown,1 24903U 97043A   24129.48106620  .00000700  00000+0  23294-3 0  9995,2 24903  86.3919 280.4208 0002119  87.1168 273.0272 14.36326487398630,14.36326487,0.0002119,LEO
24907,IRIDIUM 22,1997,100.33,-1.0,-,86.39,Inactive,0,LEO,USA,USA,Unknown,Unknown,Unknown,1 24907U 97043E   24129.50602845  .00000681  00000+0  23148-3 0  9998,2 24907  86.3920 283.6182 0002138  93.2647 266.8794 14.35216749398719,14.35216749,0.0002138,LEO
24925,DUMMY MASS 1,1997,96.89,-1.0,-,86.33,Inactive,0,LEO,PRC,China,Unknown,Unknown,Unknown,1 24925U 97048A   24129.60328595  .00000684  00000+0  74772-4 0  9994,2 24925  86.3319 322.2917 0008548 128.0127 232.1871 14.86174168445021,14.86174168,0.0008548,LEO
24926,DUMMY MASS 2,1997,96.91,-1.0,-,86.33,Inactive,0,LEO,PRC,China,Unknown,Unknown,Unknown,1 24926U 97048B   24129.56613371  .00000671  00000+0  73670-4 0  9991,2 24926  86.3320 323.8453 0009012 138.2236 221.9678 14.85932768445047,14.85932768,0.0009012,LEO
24944,IRIDIUM 29,1997,100.3,-1.0,-,86.39,Inactive,0,LEO,Kazakhstan,USA,Unknown,Unknown,Unknown,1 24944U 97051A   24129.59097541  .00000611  00000+0  20505-3 0  9995,2 24944  86.3920 313.5168 0002323  94.7979 265.3483 14.35667803395208,14.35667803,0.0002323,LEO
24946,IRIDIUM 33,1997,100.39,-1.0,-,86.38,Inactive,0,LEO,Kazakhstan,USA,Unknown,Unknown,Unknown,1 24946U 97051C   24129.58068261  .00000438  00000+0  14911-3 0  9994,2 24946  86.3835 312.7750 0006689 333.3516  26.7335 14.34336023394739,14.34336023,0.0006689,LEO
24948,IRIDIUM 28,1997,100.24,-1.0,-,86.39,Inactive,0,LEO,Kazakhstan,USA,Unknown,Unknown,Unknown,1 24948U 97051E   24129.55146113  .00000650  00000+0  21446-3 0  9993,2 24948  86.3924 311.2795 0002007  79.2001 280.9422 14.36618266395734,14.36618266,0.0002007,LEO
